{"fetched_at":"2026-07-15T17:46:46.517Z","source":"https://celestrak.org/NORAD/elements/gp.php?GROUP=oneweb&FORMAT=JSON","constellation":"oneweb","records":[{"OBJECT_NAME":"ONEWEB-0564","OBJECT_ID":"2023-029F","EPOCH":"2026-07-15T03:58:10.361280","CLASSIFICATION_TYPE":"U","MEAN_MOTION":13.20772279,"ECCENTRICITY":0.0001767,"INCLINATION":87.9177,"RA_OF_ASC_NODE":268.8765,"ARG_OF_PERICENTER":90.9237,"MEAN_ANOMALY":269.2099,"EPHEMERIS_TYPE":0,"NORAD_CAT_ID":55801,"ELEMENT_SET_NO":999,"REV_AT_EPOCH":16484,"BSTAR":0.0000092811,"MEAN_MOTION_DOT":1.7e-7,"MEAN_MOTION_DDOT":0},{"OBJECT_NAME":"ONEWEB-0638","OBJECT_ID":"2023-029G","EPOCH":"2026-07-15T04:13:31.745568","CLASSIFICATION_TYPE":"U","MEAN_MOTION":13.14504454,"ECCENTRICITY":0.0001464,"INCLINATION":87.8961,"RA_OF_ASC_NODE":284.1726,"ARG_OF_PERICENTER":103.8107,"MEAN_ANOMALY":256.3186,"EPHEMERIS_TYPE":0,"NORAD_CAT_ID":55802,"ELEMENT_SET_NO":999,"REV_AT_EPOCH":16307,"BSTAR":0.00021292,"MEAN_MOTION_DOT":9.2e-7,"MEAN_MOTION_DDOT":0},{"OBJECT_NAME":"ONEWEB-0639","OBJECT_ID":"2023-029H","EPOCH":"2026-07-14T18:44:25.262880","CLASSIFICATION_TYPE":"U","MEAN_MOTION":13.19726342,"ECCENTRICITY":0.00026181,"INCLINATION":87.9185,"RA_OF_ASC_NODE":299.4812,"ARG_OF_PERICENTER":120.1802,"MEAN_ANOMALY":239.959,"EPHEMERIS_TYPE":0,"NORAD_CAT_ID":55803,"ELEMENT_SET_NO":999,"REV_AT_EPOCH":16254,"BSTAR":0.00010013162,"MEAN_MOTION_DOT":5.3e-7,"MEAN_MOTION_DDOT":0},{"OBJECT_NAME":"ONEWEB-0640","OBJECT_ID":"2023-029J","EPOCH":"2026-07-15T04:27:13.868352","CLASSIFICATION_TYPE":"U","MEAN_MOTION":13.14502519,"ECCENTRICITY":0.0001589,"INCLINATION":87.8961,"RA_OF_ASC_NODE":284.1619,"ARG_OF_PERICENTER":117.4229,"MEAN_ANOMALY":242.7062,"EPHEMERIS_TYPE":0,"NORAD_CAT_ID":55804,"ELEMENT_SET_NO":999,"REV_AT_EPOCH":16309,"BSTAR":-0.00035282,"MEAN_MOTION_DOT":-0.00000118,"MEAN_MOTION_DDOT":0},{"OBJECT_NAME":"ONEWEB-0641","OBJECT_ID":"2023-029K","EPOCH":"2026-07-14T20:26:46.675104","CLASSIFICATION_TYPE":"U","MEAN_MOTION":13.19726759,"ECCENTRICITY":0.0002149,"INCLINATION":87.9193,"RA_OF_ASC_NODE":299.4579,"ARG_OF_PERICENTER":104.7073,"MEAN_ANOMALY":255.4298,"EPHEMERIS_TYPE":0,"NORAD_CAT_ID":55805,"ELEMENT_SET_NO":999,"REV_AT_EPOCH":16256,"BSTAR":0.000056058,"MEAN_MOTION_DOT":3.5e-7,"MEAN_MOTION_DDOT":0},{"OBJECT_NAME":"ONEWEB-0642","OBJECT_ID":"2023-029L","EPOCH":"2026-07-15T05:25:51.331584","CLASSIFICATION_TYPE":"U","MEAN_MOTION":13.19726592,"ECCENTRICITY":0.0002679,"INCLINATION":87.9187,"RA_OF_ASC_NODE":299.3936,"ARG_OF_PERICENTER":113.9555,"MEAN_ANOMALY":246.1858,"EPHEMERIS_TYPE":0,"NORAD_CAT_ID":55806,"ELEMENT_SET_NO":999,"REV_AT_EPOCH":16260,"BSTAR":0.00014439,"MEAN_MOTION_DOT":7.1e-7,"MEAN_MOTION_DDOT":0},{"OBJECT_NAME":"ONEWEB-0643","OBJECT_ID":"2023-029M","EPOCH":"2026-07-14T18:35:48.427584","CLASSIFICATION_TYPE":"U","MEAN_MOTION":13.14502309,"ECCENTRICITY":0.00026574,"INCLINATION":87.8957,"RA_OF_ASC_NODE":284.231,"ARG_OF_PERICENTER":107.6374,"MEAN_ANOMALY":252.5046,"EPHEMERIS_TYPE":0,"NORAD_CAT_ID":55807,"ELEMENT_SET_NO":999,"REV_AT_EPOCH":16301,"BSTAR":0.00061430609,"MEAN_MOTION_DOT":0.00000241,"MEAN_MOTION_DDOT":0},{"OBJECT_NAME":"ONEWEB-0644","OBJECT_ID":"2023-029N","EPOCH":"2026-07-15T05:19:02.065152","CLASSIFICATION_TYPE":"U","MEAN_MOTION":13.19726151,"ECCENTRICITY":0.0002309,"INCLINATION":87.9184,"RA_OF_ASC_NODE":299.3953,"ARG_OF_PERICENTER":106.8224,"MEAN_ANOMALY":253.3162,"EPHEMERIS_TYPE":0,"NORAD_CAT_ID":55808,"ELEMENT_SET_NO":999,"REV_AT_EPOCH":16260,"BSTAR":0.00017935,"MEAN_MOTION_DOT":8.5e-7,"MEAN_MOTION_DDOT":0},{"OBJECT_NAME":"ONEWEB-0645","OBJECT_ID":"2023-029P","EPOCH":"2026-07-14T18:55:49.098144","CLASSIFICATION_TYPE":"U","MEAN_MOTION":13.19725789,"ECCENTRICITY":0.00020239,"INCLINATION":87.9184,"RA_OF_ASC_NODE":299.4788,"ARG_OF_PERICENTER":115.3898,"MEAN_ANOMALY":244.7444,"EPHEMERIS_TYPE":0,"NORAD_CAT_ID":55809,"ELEMENT_SET_NO":999,"REV_AT_EPOCH":16254,"BSTAR":0.000015420267,"MEAN_MOTION_DOT":1.9e-7,"MEAN_MOTION_DDOT":0},{"OBJECT_NAME":"ONEWEB-0646","OBJECT_ID":"2023-029Q","EPOCH":"2026-07-14T19:20:49.410816","CLASSIFICATION_TYPE":"U","MEAN_MOTION":13.19726847,"ECCENTRICITY":0.00022586,"INCLINATION":87.9186,"RA_OF_ASC_NODE":299.4754,"ARG_OF_PERICENTER":105.8251,"MEAN_ANOMALY":254.3131,"EPHEMERIS_TYPE":0,"NORAD_CAT_ID":55810,"ELEMENT_SET_NO":999,"REV_AT_EPOCH":16253,"BSTAR":0.000075562537,"MEAN_MOTION_DOT":4.3e-7,"MEAN_MOTION_DDOT":0},{"OBJECT_NAME":"ONEWEB-0648","OBJECT_ID":"2023-029R","EPOCH":"2026-07-14T17:50:07.406592","CLASSIFICATION_TYPE":"U","MEAN_MOTION":13.14503406,"ECCENTRICITY":0.00023685,"INCLINATION":87.8967,"RA_OF_ASC_NODE":284.2135,"ARG_OF_PERICENTER":123.0802,"MEAN_ANOMALY":237.0556,"EPHEMERIS_TYPE":0,"NORAD_CAT_ID":55811,"ELEMENT_SET_NO":999,"REV_AT_EPOCH":16301,"BSTAR":-0.00035062467,"MEAN_MOTION_DOT":-0.00000117,"MEAN_MOTION_DDOT":0},{"OBJECT_NAME":"ONEWEB-0649","OBJECT_ID":"2023-029S","EPOCH":"2026-07-14T19:57:12.480480","CLASSIFICATION_TYPE":"U","MEAN_MOTION":13.1972668,"ECCENTRICITY":0.00020439,"INCLINATION":87.9184,"RA_OF_ASC_NODE":299.4684,"ARG_OF_PERICENTER":108.7187,"MEAN_ANOMALY":251.4168,"EPHEMERIS_TYPE":0,"NORAD_CAT_ID":55812,"ELEMENT_SET_NO":999,"REV_AT_EPOCH":16257,"BSTAR":-0.00011897397,"MEAN_MOTION_DOT":-3.5e-7,"MEAN_MOTION_DDOT":0},{"OBJECT_NAME":"ONEWEB-0650","OBJECT_ID":"2023-029T","EPOCH":"2026-07-14T19:50:23.441280","CLASSIFICATION_TYPE":"U","MEAN_MOTION":13.19726251,"ECCENTRICITY":0.00024804,"INCLINATION":87.9183,"RA_OF_ASC_NODE":299.4716,"ARG_OF_PERICENTER":112.341,"MEAN_ANOMALY":247.7986,"EPHEMERIS_TYPE":0,"NORAD_CAT_ID":55813,"ELEMENT_SET_NO":999,"REV_AT_EPOCH":16254,"BSTAR":-0.00012907812,"MEAN_MOTION_DOT":-3.9e-7,"MEAN_MOTION_DDOT":0},{"OBJECT_NAME":"ONEWEB-0652","OBJECT_ID":"2023-029U","EPOCH":"2026-07-15T04:20:22.881696","CLASSIFICATION_TYPE":"U","MEAN_MOTION":13.14502706,"ECCENTRICITY":0.0002003,"INCLINATION":87.897,"RA_OF_ASC_NODE":284.1329,"ARG_OF_PERICENTER":95.5003,"MEAN_ANOMALY":264.6355,"EPHEMERIS_TYPE":0,"NORAD_CAT_ID":55814,"ELEMENT_SET_NO":999,"REV_AT_EPOCH":16304,"BSTAR":-0.000080984,"MEAN_MOTION_DOT":-1.7e-7,"MEAN_MOTION_DDOT":0},{"OBJECT_NAME":"ONEWEB-0653","OBJECT_ID":"2023-029V","EPOCH":"2026-07-14T18:49:29.774496","CLASSIFICATION_TYPE":"U","MEAN_MOTION":13.14501342,"ECCENTRICITY":0.00019722,"INCLINATION":87.8972,"RA_OF_ASC_NODE":284.2098,"ARG_OF_PERICENTER":100.5037,"MEAN_ANOMALY":259.6315,"EPHEMERIS_TYPE":0,"NORAD_CAT_ID":55815,"ELEMENT_SET_NO":999,"REV_AT_EPOCH":16302,"BSTAR":0.0002991623,"MEAN_MOTION_DOT":0.00000124,"MEAN_MOTION_DDOT":0},{"OBJECT_NAME":"ONEWEB-0654","OBJECT_ID":"2023-029W","EPOCH":"2026-07-15T03:50:41.532288","CLASSIFICATION_TYPE":"U","MEAN_MOTION":13.14502254,"ECCENTRICITY":0.0001805,"INCLINATION":87.8969,"RA_OF_ASC_NODE":284.1314,"ARG_OF_PERICENTER":91.0927,"MEAN_ANOMALY":269.041,"EPHEMERIS_TYPE":0,"NORAD_CAT_ID":55816,"ELEMENT_SET_NO":999,"REV_AT_EPOCH":16309,"BSTAR":0.00055607,"MEAN_MOTION_DOT":0.00000219,"MEAN_MOTION_DDOT":0}]}
